[{"OBJECT_NAME":"STARLINK-4330","OBJECT_ID":"2022-077AP","EPOCH":"2026-03-09T11:50:48.358464","MEAN_MOTION":15.05645708,"ECCENTRICITY":0.00015073,"INCLINATION":97.6026,"RA_OF_ASC_NODE":251.0179,"ARG_OF_PERICENTER":89.9655,"MEAN_ANOMALY":270.1745,"EPHEMERIS_TYPE":0,"CLASSIFICATION_TYPE":"U","NORAD_CAT_ID":53080,"ELEMENT_SET_NO":999,"REV_AT_EPOCH":20095,"BSTAR":-1.9386071e-5,"MEAN_MOTION_DOT":-3.4e-6,"MEAN_MOTION_DDOT":0},{"OBJECT_NAME":"SL-18 R\/B","OBJECT_ID":"2001-007B","EPOCH":"2026-03-09T23:25:11.323200","MEAN_MOTION":15.07301441,"ECCENTRICITY":0.00085554,"INCLINATION":97.6926,"RA_OF_ASC_NODE":87.6817,"ARG_OF_PERICENTER":353.225,"MEAN_ANOMALY":6.886,"EPHEMERIS_TYPE":0,"CLASSIFICATION_TYPE":"U","NORAD_CAT_ID":26703,"ELEMENT_SET_NO":999,"REV_AT_EPOCH":64619,"BSTAR":0.00021543689,"MEAN_MOTION_DOT":3.19e-5,"MEAN_MOTION_DDOT":0}]
